{
  "type": "FeatureCollection",
  "features": [
    {
      "type": "Feature",
      "properties": {
        "norad_id": 33637,
        "name": "FENGYUN 1C DEB",
        "group": "fengyun-1c-debris",
        "lat": 2.84233285037895,
        "lon": 41.89391208285703,
        "alt_km": 797.9630047556966,
        "timestamp": "2025-12-23T11:34:48.449295+00:00",
        "meta_object_name": "FENGYUN 1C DEB",
        "meta_object_id": "1999-025DDW",
        "meta_epoch": "2025-12-22T20:31:28.911936",
        "meta_mean_motion": 14.36813194,
        "meta_eccentricity": 0.008304,
        "meta_inclination": 98.4926,
        "meta_ra_of_asc_node": 41.7001,
        "meta_arg_of_pericenter": 121.6537,
        "meta_mean_anomaly": 239.2783,
        "meta_ephemeris_type": 0,
        "meta_classification_type": "U",
        "meta_norad_cat_id": 33637,
        "meta_element_set_no": 999,
        "meta_rev_at_epoch": 64983,
        "meta_bstar": 0.0011662,
        "meta_mean_motion_dot": 3.541e-05,
        "meta_mean_motion_ddot": 0,
        "tle_line1": "1 33637U 99025DDW 25356.85519574  .00003541  00000+0  11662-2 0  9992",
        "tle_line2": "2 33637  98.4926  41.7001 0083040 121.6537 239.2783 14.36813194649839"
      },
      "geometry": {
        "type": "Point",
        "coordinates": [
          41.89391208285703,
          2.84233285037895
        ]
      }
    },
    {
      "type": "Feature",
      "properties": {
        "norad_id": 33638,
        "name": "FENGYUN 1C DEB",
        "group": "fengyun-1c-debris",
        "lat": 49.858012355378776,
        "lon": -123.27998519291614,
        "alt_km": 1186.351761867717,
        "timestamp": "2025-12-23T11:34:48.449304+00:00",
        "meta_object_name": "FENGYUN 1C DEB",
        "meta_object_id": "1999-025DDX",
        "meta_epoch": "2025-12-22T12:31:35.618592",
        "meta_mean_motion": 13.69332139,
        "meta_eccentricity": 0.02639098,
        "meta_inclination": 98.4648,
        "meta_ra_of_asc_node": 246.0451,
        "meta_arg_of_pericenter": 246.8978,
        "meta_mean_anomaly": 110.4157,
        "meta_ephemeris_type": 0,
        "meta_classification_type": "U",
        "meta_norad_cat_id": 33638,
        "meta_element_set_no": 999,
        "meta_rev_at_epoch": 61049,
        "meta_bstar": 0.000991659,
        "meta_mean_motion_dot": 1.061e-05,
        "meta_mean_motion_ddot": 0,
        "tle_line1": "1 33638U 99025DDX 25356.52194003  .00001061  00000+0  99166-3 0  9994",
        "tle_line2": "2 33638  98.4648 246.0451 0263909 246.8978 110.4157 13.69332139610498"
      },
      "geometry": {
        "type": "Point",
        "coordinates": [
          -123.27998519291614,
          49.858012355378776
        ]
      }
    },
    {
      "type": "Feature",
      "properties": {
        "norad_id": 33639,
        "name": "FENGYUN 1C DEB",
        "group": "fengyun-1c-debris",
        "lat": -40.79929093063073,
        "lon": -98.95215815754894,
        "alt_km": 733.9011437023128,
        "timestamp": "2025-12-23T11:34:48.449313+00:00",
        "meta_object_name": "FENGYUN 1C DEB",
        "meta_object_id": "1999-025DDY",
        "meta_epoch": "2025-12-14T11:30:34.684704",
        "meta_mean_motion": 14.40475035,
        "meta_eccentricity": 0.00499213,
        "meta_inclination": 98.7123,
        "meta_ra_of_asc_node": 79.4896,
        "meta_arg_of_pericenter": 283.4225,
        "meta_mean_anomaly": 76.1402,
        "meta_ephemeris_type": 0,
        "meta_classification_type": "U",
        "meta_norad_cat_id": 33639,
        "meta_element_set_no": 999,
        "meta_rev_at_epoch": 60607,
        "meta_bstar": 0.0023798225,
        "meta_mean_motion_dot": 7.641e-05,
        "meta_mean_motion_ddot": 0,
        "tle_line1": "1 33639U 99025DDY 25348.47956811  .00007641  00000+0  23798-2 0  9990",
        "tle_line2": "2 33639  98.7123  79.4896 0049921 283.4225  76.1402 14.40475035606072"
      },
      "geometry": {
        "type": "Point",
        "coordinates": [
          -98.95215815754894,
          -40.79929093063073
        ]
      }
    },
    {
      "type": "Feature",
      "properties": {
        "norad_id": 33640,
        "name": "FENGYUN 1C DEB",
        "group": "fengyun-1c-debris",
        "lat": -75.24409953087182,
        "lon": 84.45463198652087,
        "alt_km": 788.0963599580255,
        "timestamp": "2025-12-23T11:34:48.449321+00:00",
        "meta_object_name": "FENGYUN 1C DEB",
        "meta_object_id": "1999-025DDZ",
        "meta_epoch": "2025-12-23T02:05:36.299616",
        "meta_mean_motion": 14.45926578,
        "meta_eccentricity": 0.0091253,
        "meta_inclination": 98.8433,
        "meta_ra_of_asc_node": 300.2764,
        "meta_arg_of_pericenter": 128.8232,
        "meta_mean_anomaly": 232.115,
        "meta_ephemeris_type": 0,
        "meta_classification_type": "U",
        "meta_norad_cat_id": 33640,
        "meta_element_set_no": 999,
        "meta_rev_at_epoch": 92492,
        "meta_bstar": 0.00046777,
        "meta_mean_motion_dot": 1.701e-05,
        "meta_mean_motion_ddot": 0,
        "tle_line1": "1 33640U 99025DDZ 25357.08722569  .00001701  00000+0  46777-3 0  9994",
        "tle_line2": "2 33640  98.8433 300.2764 0091253 128.8232 232.1150 14.45926578924922"
      },
      "geometry": {
        "type": "Point",
        "coordinates": [
          84.45463198652087,
          -75.24409953087182
        ]
      }
    },
    {
      "type": "Feature",
      "properties": {
        "norad_id": 33648,
        "name": "FENGYUN 1C DEB",
        "group": "fengyun-1c-debris",
        "lat": -53.75245416882564,
        "lon": 7.95243617009001,
        "alt_km": 907.812645932966,
        "timestamp": "2025-12-23T11:34:48.449330+00:00",
        "meta_object_name": "FENGYUN 1C DEB",
        "meta_object_id": "1999-025DEH",
        "meta_epoch": "2025-12-22T06:55:33.813984",
        "meta_mean_motion": 14.1177959,
        "meta_eccentricity": 0.00693381,
        "meta_inclination": 98.7195,
        "meta_ra_of_asc_node": 354.7094,
        "meta_arg_of_pericenter": 147.1409,
        "meta_mean_anomaly": 213.4103,
        "meta_ephemeris_type": 0,
        "meta_classification_type": "U",
        "meta_norad_cat_id": 33648,
        "meta_element_set_no": 999,
        "meta_rev_at_epoch": 64511,
        "meta_bstar": 0.00012882594,
        "meta_mean_motion_dot": 1.98e-06,
        "meta_mean_motion_ddot": 0,
        "tle_line1": "1 33648U 99025DEH 25356.28858581  .00000198  00000+0  12883-3 0  9997",
        "tle_line2": "2 33648  98.7195 354.7094 0069338 147.1409 213.4103 14.11779590645117"
      },
      "geometry": {
        "type": "Point",
        "coordinates": [
          7.95243617009001,
          -53.75245416882564
        ]
      }
    },
    {
      "type": "Feature",
      "properties": {
        "norad_id": 33650,
        "name": "FENGYUN 1C DEB",
        "group": "fengyun-1c-debris",
        "lat": -66.12994987759834,
        "lon": -176.8694225168064,
        "alt_km": 987.9128714482758,
        "timestamp": "2025-12-23T11:34:48.449339+00:00",
        "meta_object_name": "FENGYUN 1C DEB",
        "meta_object_id": "1999-025DEK",
        "meta_epoch": "2025-12-16T17:25:23.418336",
        "meta_mean_motion": 13.89200794,
        "meta_eccentricity": 0.01497023,
        "meta_inclination": 98.9866,
        "meta_ra_of_asc_node": 155.6582,
        "meta_arg_of_pericenter": 68.1425,
        "meta_mean_anomaly": 293.558,
        "meta_ephemeris_type": 0,
        "meta_classification_type": "U",
        "meta_norad_cat_id": 33650,
        "meta_element_set_no": 999,
        "meta_rev_at_epoch": 68864,
        "meta_bstar": 0.00064639635,
        "meta_mean_motion_dot": 8.18e-06,
        "meta_mean_motion_ddot": 0,
        "tle_line1": "1 33650U 99025DEK 25350.72596549  .00000818  00000+0  64640-3 0  9993",
        "tle_line2": "2 33650  98.9866 155.6582 0149702  68.1425 293.5580 13.89200794688643"
      },
      "geometry": {
        "type": "Point",
        "coordinates": [
          -176.8694225168064,
          -66.12994987759834
        ]
      }
    },
    {
      "type": "Feature",
      "properties": {
        "norad_id": 33651,
        "name": "FENGYUN 1C DEB",
        "group": "fengyun-1c-debris",
        "lat": -34.61863670636969,
        "lon": 48.875966337678506,
        "alt_km": 784.9042572722137,
        "timestamp": "2025-12-23T11:34:48.449348+00:00",
        "meta_object_name": "FENGYUN 1C DEB",
        "meta_object_id": "1999-025DEL",
        "meta_epoch": "2025-12-21T09:01:21.702432",
        "meta_mean_motion": 14.20361447,
        "meta_eccentricity": 0.01173993,
        "meta_inclination": 98.6555,
        "meta_ra_of_asc_node": 40.778,
        "meta_arg_of_pericenter": 29.2021,
        "meta_mean_anomaly": 331.5653,
        "meta_ephemeris_type": 0,
        "meta_classification_type": "U",
        "meta_norad_cat_id": 33651,
        "meta_element_set_no": 999,
        "meta_rev_at_epoch": 64394,
        "meta_bstar": 0.00012970864,
        "meta_mean_motion_dot": 2.55e-06,
        "meta_mean_motion_ddot": 0,
        "tle_line1": "1 33651U 99025DEL 25355.37594563  .00000255  00000+0  12971-3 0  9999",
        "tle_line2": "2 33651  98.6555  40.7780 0117399  29.2021 331.5653 14.20361447643944"
      },
      "geometry": {
        "type": "Point",
        "coordinates": [
          48.875966337678506,
          -34.61863670636969
        ]
      }
    }
  ]
}